{
  "type": "FeatureCollection",
  "features": [
    {
      "type": "Feature",
      "properties": {
        "norad_id": 66662,
        "name": "2025-274N",
        "group": "last-30-days",
        "lat": 6.6994968145553475,
        "lon": -85.7665696027193,
        "alt_km": 590.1285589736735,
        "timestamp": "2025-12-13T22:39:28.445095+00:00",
        "meta_object_name": "2025-274N",
        "meta_object_id": "2025-274N",
        "meta_epoch": "2025-12-13T06:32:40.035840",
        "meta_mean_motion": 14.93155482,
        "meta_eccentricity": 0.00137381,
        "meta_inclination": 97.7386,
        "meta_ra_of_asc_node": 274.4882,
        "meta_arg_of_pericenter": 279.5359,
        "meta_mean_anomaly": 80.4308,
        "meta_ephemeris_type": 0,
        "meta_classification_type": "U",
        "meta_norad_cat_id": 66662,
        "meta_element_set_no": 999,
        "meta_rev_at_epoch": 248,
        "meta_bstar": 0.00045959787,
        "meta_mean_motion_dot": 4.748e-05,
        "meta_mean_motion_ddot": 0,
        "tle_line1": "1 66662U 25274N   25347.27268560  .00004748  00000+0  45960-3 0  9992",
        "tle_line2": "2 66662  97.7386 274.4882 0013738 279.5359  80.4308 14.93155482  2484"
      },
      "geometry": {
        "type": "Point",
        "coordinates": [
          -85.7665696027193,
          6.6994968145553475
        ]
      }
    },
    {
      "type": "Feature",
      "properties": {
        "norad_id": 66663,
        "name": "KSLV-II R/B",
        "group": "last-30-days",
        "lat": -81.60761341054294,
        "lon": 28.055165905735866,
        "alt_km": 558.3556481007872,
        "timestamp": "2025-12-13T22:39:28.445105+00:00",
        "meta_object_name": "KSLV-II R/B",
        "meta_object_id": "2025-274P",
        "meta_epoch": "2025-12-13T07:01:52.858560",
        "meta_mean_motion": 14.97306157,
        "meta_eccentricity": 0.00530932,
        "meta_inclination": 97.7409,
        "meta_ra_of_asc_node": 274.6318,
        "meta_arg_of_pericenter": 318.2344,
        "meta_mean_anomaly": 41.4831,
        "meta_ephemeris_type": 0,
        "meta_classification_type": "U",
        "meta_norad_cat_id": 66663,
        "meta_element_set_no": 999,
        "meta_rev_at_epoch": 249,
        "meta_bstar": 0.00084492735,
        "meta_mean_motion_dot": 0.00010032,
        "meta_mean_motion_ddot": 0,
        "tle_line1": "1 66663U 25274P   25347.29297290  .00010032  00000+0  84493-3 0  9994",
        "tle_line2": "2 66663  97.7409 274.6318 0053093 318.2344  41.4831 14.97306157  2490"
      },
      "geometry": {
        "type": "Point",
        "coordinates": [
          28.055165905735866,
          -81.60761341054294
        ]
      }
    },
    {
      "type": "Feature",
      "properties": {
        "norad_id": 66664,
        "name": "SOYUZ-MS 28",
        "group": "last-30-days",
        "lat": -51.577561986022836,
        "lon": 49.29185906152034,
        "alt_km": 420.5830400178547,
        "timestamp": "2025-12-13T22:39:28.445116+00:00",
        "meta_object_name": "SOYUZ-MS 28",
        "meta_object_id": "2025-275A",
        "meta_epoch": "2025-12-13T02:54:59.414400",
        "meta_mean_motion": 15.49559837,
        "meta_eccentricity": 0.00032382,
        "meta_inclination": 51.6303,
        "meta_ra_of_asc_node": 140.5889,
        "meta_arg_of_pericenter": 241.9684,
        "meta_mean_anomaly": 118.0978,
        "meta_ephemeris_type": 0,
        "meta_classification_type": "U",
        "meta_norad_cat_id": 66664,
        "meta_element_set_no": 999,
        "meta_rev_at_epoch": 128,
        "meta_bstar": 0.00029450217,
        "meta_mean_motion_dot": 0.0001613,
        "meta_mean_motion_ddot": 0,
        "tle_line1": "1 66664U 25275A   25347.12152100  .00016130  00000+0  29450-3 0  9995",
        "tle_line2": "2 66664  51.6303 140.5889 0003238 241.9684 118.0978 15.49559837  1284"
      },
      "geometry": {
        "type": "Point",
        "coordinates": [
          49.29185906152034,
          -51.577561986022836
        ]
      }
    },
    {
      "type": "Feature",
      "properties": {
        "norad_id": 66791,
        "name": "STARLINK-35867",
        "group": "last-30-days",
        "lat": 42.08175156895937,
        "lon": -39.58751086261156,
        "alt_km": 299.3107570639859,
        "timestamp": "2025-12-13T22:39:28.445312+00:00",
        "meta_object_name": "STARLINK-35867",
        "meta_object_id": "2025-278A",
        "meta_epoch": "2025-12-13T02:42:47.137248",
        "meta_mean_motion": 15.87980297,
        "meta_eccentricity": 0.00084245,
        "meta_inclination": 42.9975,
        "meta_ra_of_asc_node": 249.8307,
        "meta_arg_of_pericenter": 305.9472,
        "meta_mean_anomaly": 54.062,
        "meta_ephemeris_type": 0,
        "meta_classification_type": "U",
        "meta_norad_cat_id": 66791,
        "meta_element_set_no": 999,
        "meta_rev_at_epoch": 189,
        "meta_bstar": 0.0037631639,
        "meta_mean_motion_dot": 0.01185379,
        "meta_mean_motion_ddot": 0,
        "tle_line1": "1 66791U 25278A   25347.11304557  .01185379  00000+0  37632-2 0  9996",
        "tle_line2": "2 66791  42.9975 249.8307 0008424 305.9472  54.0620 15.87980297  1899"
      },
      "geometry": {
        "type": "Point",
        "coordinates": [
          -39.58751086261156,
          42.08175156895937
        ]
      }
    },
    {
      "type": "Feature",
      "properties": {
        "norad_id": 66792,
        "name": "STARLINK-35990",
        "group": "last-30-days",
        "lat": 42.95888868876862,
        "lon": -23.36918691079354,
        "alt_km": 286.9035465173192,
        "timestamp": "2025-12-13T22:39:28.445324+00:00",
        "meta_object_name": "STARLINK-35990",
        "meta_object_id": "2025-278B",
        "meta_epoch": "2025-12-13T01:11:23.764704",
        "meta_mean_motion": 15.89439223,
        "meta_eccentricity": 0.00042805,
        "meta_inclination": 42.9971,
        "meta_ra_of_asc_node": 250.2153,
        "meta_arg_of_pericenter": 252.276,
        "meta_mean_anomaly": 107.7648,
        "meta_ephemeris_type": 0,
        "meta_classification_type": "U",
        "meta_norad_cat_id": 66792,
        "meta_element_set_no": 999,
        "meta_rev_at_epoch": 188,
        "meta_bstar": 0.0072177431,
        "meta_mean_motion_dot": 0.02531554,
        "meta_mean_motion_ddot": 0,
        "tle_line1": "1 66792U 25278B   25347.04958061  .02531554  00000+0  72177-2 0  9998",
        "tle_line2": "2 66792  42.9971 250.2153 0004280 252.2760 107.7648 15.89439223  1886"
      },
      "geometry": {
        "type": "Point",
        "coordinates": [
          -23.36918691079354,
          42.95888868876862
        ]
      }
    },
    {
      "type": "Feature",
      "properties": {
        "norad_id": 66793,
        "name": "STARLINK-36051",
        "group": "last-30-days",
        "lat": 41.87514382675808,
        "lon": -41.130217821581596,
        "alt_km": 306.2501365326525,
        "timestamp": "2025-12-13T22:39:28.445337+00:00",
        "meta_object_name": "STARLINK-36051",
        "meta_object_id": "2025-278C",
        "meta_epoch": "2025-12-13T02:41:25.766592",
        "meta_mean_motion": 15.865629,
        "meta_eccentricity": 0.0003434,
        "meta_inclination": 42.9972,
        "meta_ra_of_asc_node": 249.8217,
        "meta_arg_of_pericenter": 288.9271,
        "meta_mean_anomaly": 71.123,
        "meta_ephemeris_type": 0,
        "meta_classification_type": "U",
        "meta_norad_cat_id": 66793,
        "meta_element_set_no": 999,
        "meta_rev_at_epoch": 189,
        "meta_bstar": 0.0006530861,
        "meta_mean_motion_dot": 0.0017387,
        "meta_mean_motion_ddot": 0,
        "tle_line1": "1 66793U 25278C   25347.11210378  .00173870  00000+0  65309-3 0  9990",
        "tle_line2": "2 66793  42.9972 249.8217 0003434 288.9271  71.1230 15.86562900  1894"
      },
      "geometry": {
        "type": "Point",
        "coordinates": [
          -41.130217821581596,
          41.87514382675808
        ]
      }
    },
    {
      "type": "Feature",
      "properties": {
        "norad_id": 66794,
        "name": "STARLINK-36062",
        "group": "last-30-days",
        "lat": 41.49712718895615,
        "lon": -43.60255748345029,
        "alt_km": 306.1854283476614,
        "timestamp": "2025-12-13T22:39:28.445347+00:00",
        "meta_object_name": "STARLINK-36062",
        "meta_object_id": "2025-278D",
        "meta_epoch": "2025-12-13T01:11:19.643424",
        "meta_mean_motion": 15.86697722,
        "meta_eccentricity": 0.00053521,
        "meta_inclination": 42.997,
        "meta_ra_of_asc_node": 250.2156,
        "meta_arg_of_pericenter": 311.255,
        "meta_mean_anomaly": 48.7862,
        "meta_ephemeris_type": 0,
        "meta_classification_type": "U",
        "meta_norad_cat_id": 66794,
        "meta_element_set_no": 999,
        "meta_rev_at_epoch": 188,
        "meta_bstar": 0.00034305241,
        "meta_mean_motion_dot": 0.00090856,
        "meta_mean_motion_ddot": 0,
        "tle_line1": "1 66794U 25278D   25347.04953291  .00090856  00000+0  34305-3 0  9995",
        "tle_line2": "2 66794  42.9970 250.2156 0005352 311.2550  48.7862 15.86697722  1883"
      },
      "geometry": {
        "type": "Point",
        "coordinates": [
          -43.60255748345029,
          41.49712718895615
        ]
      }
    }
  ]
}